NORAD_CAT_ID,OBJECT_NAME,OBJECT_TYPE,EPOCH,MEAN_MOTION,ECCENTRICITY,INCLINATION,RA_OF_ASC_NODE,ARG_OF_PERICENTER,MEAN_ANOMALY,BSTAR,MEAN_MOTION_DOT,MEAN_MOTION_DDOT,TLE_LINE0,TLE_LINE1,TLE_LINE2,SEMIMAJOR_AXIS,PERIOD,APOGEE,PERIGEE,DECAYED
53799.0,STARLINK-4710,PAYLOAD,2022-11-14 22:00:00,15.73022831,0.0003437,53.2164,306.1183,334.4378,142.6747,-0.0035903,-0.00473823,0.0,0 STARLINK-4710,1 53799U 22111AC  22318.91667824 -.00473823  00000-0 -35903-2 0  9990,2 53799  53.2164 306.1183 0003437 334.4378 142.6747 15.73022831  1304,6728.4,91.543,352.57800000000015,347.95300000000015,0.0
53799.0,STARLINK-4710,PAYLOAD,2022-11-15 02:00:01,15.73094453,0.0003804,53.2171,305.2935,304.0052,37.3575,-0.0083761,-0.01054348,0.0,0 STARLINK-4710,1 53799U 22111AC  22319.08334491 -.01054348  00000-0 -83761-2 0  9993,2 53799  53.2171 305.2935 0003804 304.0052  37.3575 15.73094453 10158,6728.196,91.539,352.621,347.50199999999984,0.0
53799.0,STARLINK-4710,PAYLOAD,2022-11-15 14:00:01,15.7197857,0.0006202,53.2165,302.8242,277.3035,16.1894,-0.010132,-0.0119912,0.0,0 STARLINK-4710,1 53799U 22111AC  22319.58334491 -.01199120  00000-0 -10132-1 0  9997,2 53799  53.2165 302.8242 0006202 277.3035  16.1894 15.71978570  1308,6731.38,91.604,357.42,349.07,0.0
53799.0,STARLINK-4710,PAYLOAD,2022-11-15 18:00:02,15.71517653,0.0006797999999999,53.2174,301.9995,273.2857,243.8687,-0.0096052,-0.01123989,0.0,0 STARLINK-4710,1 53799U 22111AC  22319.75002315 -.01123989  00000-0 -96052-2 0  9999,2 53799  53.2174 301.9995 0006798 273.2857 243.8687 15.71517653 10254,6732.696,91.631,359.13800000000015,349.9840000000001,0.0
53799.0,STARLINK-4710,PAYLOAD,2022-11-15 22:00:00,15.71106831,0.0006849,53.2174,301.1766,270.2373,110.1792,-0.0097026,-0.01116615,0.0,0 STARLINK-4710,1 53799U 22111AC  22319.91667824 -.01116615  00000-0 -97026-2 0  9999,2 53799  53.2174 301.1766 0006849 270.2373 110.1792 15.71106831  1300,6733.87,91.655,360.347,351.122,0.0
53799.0,STARLINK-4710,PAYLOAD,2022-11-16 14:00:01,15.69488342,0.0001091,53.2174,297.893,273.8338,277.5049,-0.010571,-0.01130857,0.0,0 STARLINK-4710,1 53799U 22111AC  22320.58335648 -.01130857  00000-0 -10571-1 0  9993,2 53799  53.2174 297.8930 0001091 273.8338 277.5049 15.69488342 10397,6738.498000000001,91.75,361.098,359.62800000000016,0.0
53799.0,STARLINK-4710,PAYLOAD,2022-11-16 22:00:08,15.68665194,7.74e-05,53.2176,296.2518,93.8185,181.8798,-0.010753,-0.01113488,0.0,0 STARLINK-4710,1 53799U 22111AC  22320.91675926 -.01113488  00000-0 -10753-1 0  9999,2 53799  53.2176 296.2518 0000774  93.8185 181.8798 15.68665194  1301,6740.855,91.798,363.242,362.199,0.0
53799.0,STARLINK-4710,PAYLOAD,2022-11-17 14:00:01,15.67069887,9.14e-05,53.2166,292.981,77.6415,2.5767,-0.011989,-0.01176753,0.0,0 STARLINK-4710,1 53799U 22111AC  22321.58334491 -.01176753  00000-0 -11989-1 0  9998,2 53799  53.2166 292.9810 0000914  77.6415   2.5767 15.67069887  1301,6745.429,91.891,367.911,366.67800000000005,0.0
53799.0,STARLINK-4710,PAYLOAD,2022-11-17 22:00:00,15.6623589,0.0001226,53.2164,291.3464,70.9474,90.3088,-0.012051,-0.01146566,0.0,0 STARLINK-4710,1 53799U 22111AC  22321.91667824 -.01146566  00000-0 -12051-1 0  9994,2 53799  53.2164 291.3464 0001226  70.9474  90.3088 15.66235890  1304,6747.824000000001,91.94,370.516,368.861,0.0
53799.0,STARLINK-4710,PAYLOAD,2022-11-18 14:00:01,15.64619482,9.67e-05,53.2165,288.0864,79.2424,241.1352,-0.013067,-0.01162962,0.0,0 STARLINK-4710,1 53799U 22111AC  22322.58334491 -.01162962  00000-0 -13067-1 0  9995,2 53799  53.2165 288.0864 0000967  79.2424 241.1352 15.64619482  1301,6752.47,92.035,374.98800000000006,373.682,0.0
53799.0,STARLINK-4710,PAYLOAD,2022-11-18 22:00:00,15.63800412,0.0001077,53.2165,286.4577,61.1764,337.2990000000001,-0.013383,-0.01153791,0.0,0 STARLINK-4710,1 53799U 22111AC  22322.91667824 -.01153791  00000-0 -13383-1 0  9992,2 53799  53.2165 286.4577 0001077  61.1764 337.2990 15.63800412 10752,6754.828,92.083,377.42,375.965,0.0
53799.0,STARLINK-4710,PAYLOAD,2022-11-19 14:00:01,15.62158681,0.0001223,53.2169,283.209,92.689,99.0527,-0.014035,-0.01135944,0.0,0 STARLINK-4710,1 53799U 22111AC  22323.58334491 -.01135944  00000-0 -14035-1 0  9992,2 53799  53.2169 283.2090 0001223  92.6890  99.0527 15.62158681  1306,6759.56,92.18,382.251,380.598,0.0
53799.0,STARLINK-4710,PAYLOAD,2022-11-19 22:00:00,15.61364279,0.0001104,53.2167,281.5867,84.4678,182.4263,-0.014806,-0.0115918,0.0,0 STARLINK-4710,1 53799U 22111AC  22323.91667824 -.01159180  00000-0 -14806-1 0  9992,2 53799  53.2167 281.5867 0001104  84.4678 182.4263 15.61364279  1303,6761.852,92.227,384.464,382.971,0.0
53799.0,STARLINK-4710,PAYLOAD,2022-11-20 14:00:01,15.59728618,0.0001079,53.2166,278.35,71.3062,342.9838,-0.0156259999999999,-0.01149346,0.0,0 STARLINK-4710,1 53799U 22111AC  22324.58334491 -.01149346  00000-0 -15626-1 0  9991,2 53799  53.2166 278.3500 0001079  71.3062 342.9838 15.59728618  1302,6766.579000000002,92.324,389.174,387.714,0.0
53799.0,STARLINK-4710,PAYLOAD,2022-11-20 22:00:00,15.58902358,0.0001222,53.2175,276.7332,75.8652,50.6601,-0.0158479999999999,-0.01131277,0.0,0 STARLINK-4710,1 53799U 22111AC  22324.91667824 -.01131277  00000-0 -15848-1 0  9997,2 53799  53.2175 276.7332 0001222  75.8652  50.6601 15.58902358  1306,6768.97,92.373,391.662,390.007,0.0
53799.0,STARLINK-4710,PAYLOAD,2022-11-21 08:00:01,15.5788286,0.0001106,53.217,274.7185,87.9194,217.5166,-0.016415,-0.01127527,0.0,0 STARLINK-4710,1 53799U 22111AC  22325.33334491 -.01127527  00000-0 -16415-1 0  9999,2 53799  53.2170 274.7185 0001106  87.9194 217.5166 15.57882860 11137,6771.922,92.433,394.536,393.038,0.0
53799.0,STARLINK-4710,PAYLOAD,2022-11-21 14:00:01,15.57324272,0.0001188,53.2167,273.5086,82.2916,185.7333,-0.017919,-0.01197322,0.0,0 STARLINK-4710,1 53799U 22111AC  22325.58334491 -.01197322  00000-0 -17919-1 0  9996,2 53799  53.2167 273.5086 0001188  82.2916 185.7333 15.57324272  1308,6773.542,92.466,396.211,394.602,0.0
53799.0,STARLINK-4710,PAYLOAD,2022-11-21 22:00:00,15.56485977,0.0001125,53.2166,271.8978,89.1241,248.2082,-0.017906,-0.01163024,0.0,0 STARLINK-4710,1 53799U 22111AC  22325.91667824 -.01163024  00000-0 -17906-1 0  9990,2 53799  53.2166 271.8978 0001125  89.1241 248.2082 15.56485977  1301,6775.974,92.516,398.601,397.076,0.0
53799.0,STARLINK-4710,PAYLOAD,2022-11-22 08:00:01,15.55452383,0.0001303,53.2166,269.8904,75.0683,77.5149,-0.01821,-0.01140469,0.0,0 STARLINK-4710,1 53799U 22111AC  22326.33334491 -.01140469  00000-0 -18210-1 0  9995,2 53799  53.2166 269.8904 0001303  75.0683  77.5149 15.55452383 11299,6778.975,92.578,401.723,399.957,0.0
53799.0,STARLINK-4710,PAYLOAD,2022-11-22 14:00:01,15.54832739,0.0001213,53.2173,268.6841,80.1894,32.8782,-0.01843,-0.01129183,0.0,0 STARLINK-4710,1 53799U 22111AC  22326.58335648 -.01129183  00000-0 -18430-1 0  9991,2 53799  53.2173 268.6841 0001213  80.1894  32.8782 15.54832739  1309,6780.776,92.614,403.463,401.818,0.0
53799.0,STARLINK-4710,PAYLOAD,2022-11-22 22:00:00,15.540362300000002,0.0001325,53.2166,267.08,79.6702,99.6853,-0.019379,-0.01150665,0.0,0 STARLINK-4710,1 53799U 22111AC  22326.91667824 -.01150665  00000-0 -19379-1 0  9994,2 53799  53.2166 267.0800 0001325  79.6702  99.6853 15.54036230  1306,6783.093000000003,92.662,405.856,404.059,0.0
53799.0,STARLINK-4710,PAYLOAD,2022-11-23 08:00:01,15.53005054,0.0001071,53.2168,265.0796,92.9056,258.0333,-0.019768,-0.01132137,0.0,0 STARLINK-4710,1 53799U 22111AC  22327.33334491 -.01132137  00000-0 -19768-1 0  9998,2 53799  53.2168 265.0796 0001071  92.9056 258.0333 15.53005054 11447,6786.095,92.723,408.687,407.233,0.0
53799.0,STARLINK-4710,PAYLOAD,2022-11-23 14:00:01,15.52392759,0.0001099,53.2173,263.878,95.7105,213.4439,-0.020186,-0.0113075,0.0,0 STARLINK-4710,1 53799U 22111AC  22327.58334491 -.01130750  00000-0 -20186-1 0  9990,2 53799  53.2173 263.8780 0001099  95.7105 213.4439 15.52392759  1304,6787.879,92.76,410.49,408.99800000000016,0.0
53799.0,STARLINK-4710,PAYLOAD,2022-11-23 22:00:00,15.51614515,0.0001016,53.2164,262.2797,82.0531,290.5119,-0.021711,-0.0119518,0.0,0 STARLINK-4710,1 53799U 22111AC  22327.91667824 -.01195180  00000-0 -21711-1 0  9999,2 53799  53.2164 262.2797 0001016  82.0531 290.5119 15.51614515  1303,6790.149,92.807,412.704,411.324,0.0
53799.0,STARLINK-4710,PAYLOAD,2022-11-24 08:00:01,15.50426036,9.96e-05,53.2167,260.2867,84.8544,95.6559,-0.011573,-0.00619533,0.0,0 STARLINK-4710,1 53799U 22111AC  22328.33334491 -.00619533  00000-0 -11573-1 0  9994,2 53799  53.2167 260.2867 0000996  84.8544  95.6559 15.50426036 11606,6793.618,92.878,416.16,414.807,0.0
53799.0,STARLINK-4710,PAYLOAD,2022-11-24 14:00:01,15.49970538,9.13e-05,53.2169,259.0898,74.1747,62.3705,-0.0024287,-0.00136328,0.0,0 STARLINK-4710,1 53799U 22111AC  22328.58334491 -.00136328  00000-0 -24287-2 0  9994,2 53799  53.2169 259.0898 0000913  74.1747  62.3705 15.49970538  1303,6794.949000000001,92.905,417.435,416.194,0.0
53799.0,STARLINK-4710,PAYLOAD,2022-11-24 22:00:00,15.49988683,0.0001369,53.2148,257.4975,90.6046,106.8735,-0.0017697,-0.00099985,0.0,0 STARLINK-4710,1 53799U 22111AC  22328.91667824 -.00099985  00000-0 -17697-2 0  9994,2 53799  53.2148 257.4975 0001369  90.6046 106.8735 15.49988683 11699,6794.896,92.904,417.691,415.831,0.0
53799.0,STARLINK-4710,PAYLOAD,2022-11-25 14:00:01,15.4989986,0.0001250999999999,53.2149,254.3109,89.6887,229.75,-0.00054698,-0.00031387,0.0,0 STARLINK-4710,1 53799U 22111AC  22329.58334491 -.00031387  00000-0 -54698-3 0  9994,2 53799  53.2149 254.3109 0001251  89.6887 229.7500 15.49899860 11790,6795.156,92.909,417.871,416.171,0.0
53799.0,STARLINK-4710,PAYLOAD,2022-11-25 22:00:00,15.49902565,0.0001229,53.2147,252.7184,88.5105,291.8399,-0.00035145,-0.00020358,0.0,0 STARLINK-4710,1 53799U 22111AC  22329.91667824 -.00020358  00000-0 -35145-3 0  9992,2 53799  53.2147 252.7184 0001229  88.5105 291.8399 15.49902565  1308,6795.148,92.909,417.848,416.17800000000005,0.0
